satname,norad_id,inclination_deg,eccentricity,mean_motion_rev_per_day,perigee_km,apogee_km,l1,l2
STARLINK-1234,45190,53.0407,0.0005396,15.72620542,347.77947758495156,355.04200550762744,1 45190U 20012N   26147.68505786  .00046121  00000+0  33921-3 0  9993,2 45190  53.0407 295.7908 0005396 201.1086 158.9709 15.72620542348278
STARLINK-1269,45197,53.1569,0.0002707,15.33866506,462.4371115606946,466.14160119003554,1 45197U 20012V   26147.91315726  .00049583  00000+0  14938-2 0  9990,2 45197  53.1569  30.9256 0002707  93.8007 266.3305 15.33866506347052
STARLINK-1154,45198,53.0435,4.29e-05,15.62704026,379.56011287992715,380.13994816714603,1 45198U 20012W   26147.79029343  .00046642  00000+0  51329-3 0  9993,2 45198  53.0435 348.8235 0000429  37.9162 322.1882 15.62704026347581
STARLINK-1199,45201,53.159,0.0002217,15.33848441,462.82610318424395,465.86005885216673,1 45201U 20012Z   26147.88396463  .00053413  00000+0  16085-2 0  9991,2 45201  53.1590  15.3267 0002217 154.0537 206.0577 15.33848441347291
STARLINK-1209,45206,53.0379,0.0008747,15.64578326,368.5452706799115,380.3582494567745,1 45206U 20012AE  26147.83061586  .00066739  00000+0  67720-3 0  9994,2 45206  53.0379 309.0022 0008747 193.4439 166.6344 15.64578326347259
STARLINK-1231,45212,53.0423,0.0003643,15.27002906,482.27750746985294,487.27782709643543,1 45212U 20012AL  26147.88331348  .00032064  00000+0  12015-2 0  9992,2 45212  53.0423  10.2159 0003643  65.3001 294.8376 15.27002906347300
STARLINK-1271,45217,53.1602,0.000163,15.33994398,462.79378694400657,465.0242939531918,1 45217U 20012AR  26147.88286491  .00033686  00000+0  10166-2 0  9991,2 45217  53.1602  15.4737 0001630 117.7061 242.4107 15.33994398347297
STARLINK-1191,45222,53.1562,0.0003733,15.37829763,449.9783251899762,455.07809983763855,1 45222U 20012AW  26147.82606226  .00056186  00000+0  14885-2 0  9995,2 45222  53.1562 349.0492 0003733 150.8630 209.2583 15.37829763347665
STARLINK-1212,45223,53.0403,0.0002999,15.65822914,368.84907920549267,372.89713546787334,1 45223U 20012AX  26147.92147243  .00058097  00000+0  56321-3 0  9991,2 45223  53.0403 324.2648 0002999 111.9524 248.1809 15.65822914348004
STARLINK-1215,45225,53.1587,0.0001545,15.34068032,462.63303470019673,464.7471592731663,1 45225U 20012AZ  26147.88274208  .00051534  00000+0  15420-2 0  9993,2 45225  53.1587 349.7443 0001545 181.3522 178.7476 15.34068032347613
STARLINK-1221,45227,53.0647,0.0001765,15.44418285,431.8856818280892,434.29004420473393,1 45227U 20012BB  26147.59555413  .00017509  00000+0  38097-3 0  9993,2 45227  53.0647 254.9400 0001765 259.0264 101.0543 15.44418285348896
STARLINK-1222,45228,53.0534,9.55e-05,15.54257567,403.66392566693776,404.9593733589945,1 45228U 20012BC  26147.76658373  .00039303  00000+0  59594-3 0  9993,2 45228  53.0534 322.2908 0000955  27.4568 332.6492 15.54257567347909
STARLINK-1226,45229,53.157,0.0002483,15.42592949,436.767349249154,440.1524712747905,1 45229U 20012BD  26147.77936792  .00060128  00000+0  13605-2 0  9990,2 45229  53.1570 346.9613 0002483 178.4777 181.6237 15.42592949347580
STARLINK-1227,45230,53.1551,0.0002925,15.42717678,436.0987427993632,440.08623705097034,1 45230U 20012BE  26147.85480417  .00059172  00000+0  13335-2 0  9996,2 45230  53.1551 346.7231 0002925 170.8666 189.2394 15.42717678347710
STARLINK-1246,45235,53.1576,0.0002892,15.33956638,462.0425707047898,466.00007507875125,1 45235U 20012BK  26147.91982556  .00045216  00000+0  13602-2 0  9990,2 45235  53.1576  30.5236 0002892 143.5635 216.5565 15.33956638347110
STARLINK-1270,45237,53.0423,0.0001983,15.60020248,386.2568916808932,388.94018239488287,1 45237U 20012BM  26147.89947824  .00103457  00000+0  12459-2 0  9999,2 45237  53.0423 325.3414 0001983 167.0916 193.0147 15.60020248347987
STARLINK-1279,45360,53.0364,0.0008584,15.72697675,345.41425094430997,356.96716074970936,1 45360U 20019A   26147.09113590  .00082420  00000+0  59734-3 0  9994,2 45360  53.0364  73.5270 0008584  73.0309 287.1649 15.72697675342957
STARLINK-1301,45361,53.0369,0.0005972,15.75026611,340.540665848127,348.5702497197044,1 45361U 20019B   26147.21318528  .00098199  00000+0  64262-3 0  9999,2 45361  53.0369  75.7534 0005972  93.8688 266.3013 15.75026611342940
STARLINK-1262,45366,53.1547,0.000406,15.32823209,464.61452687153087,470.1730978911837,1 45366U 20019G   26147.23157970  .00044179  00000+0  13776-2 0  9990,2 45366  53.1547 160.1135 0004060  32.6617 327.4635 15.32823209341781
STARLINK-1273,45367,53.0435,0.0006347,15.55498524,396.401338375842,405.00639897453857,1 45367U 20019H   26147.96784292  .00085619  00000+0  12245-2 0  9998,2 45367  53.0435 134.3208 0006347  21.6819 338.4459 15.55498524342198
STARLINK-1277,45369,53.0429,0.0006513,15.61951232,377.6183397897448,386.4241219012438,1 45369U 20019K   26147.64804233  .00103512  00000+0  11565-2 0  9990,2 45369  53.0429 130.4482 0006513  11.9165 348.2001 15.61951232342228
STARLINK-1281,45370,53.1558,0.0004985,15.33734928,461.2695440042544,468.0918332398096,1 45370U 20019L   26147.44572890  .00045515  00000+0  13783-2 0  9993,2 45370  53.1558 158.8146 0004985  32.3605 327.7703 15.33734928341828
STARLINK-1300,45374,53.1559,0.0004597,15.34183024,460.20318385579776,466.4932453621077,1 45374U 20019Q   26147.72174576  .00043840  00000+0  13097-2 0  9994,2 45374  53.1559 157.4657 0004597  46.8258 313.3128 15.34183024341860
STARLINK-1302,45375,53.0456,0.0004504,15.65958247,367.44468145233895,373.5238394837688,1 45375U 20019R   26147.92381245  .00053916  00000+0  52038-3 0  9994,2 45375  53.0456 125.4495 0004504  22.2591 337.8619 15.65958247342315
STARLINK-1304,45376,53.0421,0.0006007,15.61166557,380.2240515415988,388.3484268211505,1 45376U 20019S   26147.18832288  .00125773  00000+0  14434-2 0  9999,2 45376  53.0421 129.9843 0006007  36.9183 323.2242 15.61166557342180
STARLINK-1305,45377,53.0374,0.0001547,15.69899815,358.141363776037,360.2258907781152,1 45377U 20019T   26147.90679757  .00070339  00000+0  57591-3 0  9999,2 45377  53.0374 105.7181 0001547 142.4174 217.6950 15.69899815342597
STARLINK-1319,45379,53.0381,0.0004615,15.75313666,340.6366108148595,346.8409021380867,1 45379U 20019V   26147.91419266  .00100186  00000+0  64751-3 0  9999,2 45379  53.0381  97.8373 0004615  55.2133 304.9319 15.75313666342700
STARLINK-1266,45383,53.0438,0.0001693,15.64675159,373.02999292603454,375.31632514588455,1 45383U 20019Z   26148.00002315 -.00063864  00000+0 -64607-3 0  9991,2 45383  53.0438 111.2323 0001693  98.5169 285.5032 15.64675159  5681
STARLINK-1267,45384,53.0439,0.0007418,15.63696936,371.97800227656444,381.9999071429711,1 45384U 20019AA  26147.32066716  .00151068  00000+0  15646-2 0  9991,2 45384  53.0439 105.7446 0007418  70.3237 289.8576 15.63696936342535
STARLINK-1272,45386,53.0399,0.0008182,15.68170449,358.61943227938355,369.6524877511538,1 45386U 20019AC  26147.24602704  .00073166  00000+0  64177-3 0  9993,2 45386  53.0399  85.2592 0008182  58.6269 301.5546 15.68170449342810
STARLINK-1274,45387,53.0212,0.0008832,15.59493364,383.1455034669534,395.09919037735744,1 45387U 20019AD  26147.85205922  .00102386  00000+0  12563-2 0  9990,2 45387  53.0212  80.8411 0008832  86.5324 273.6698 15.59493364342923
STARLINK-1280,45388,53.0374,0.0005442,15.75989367,338.16029650328073,345.47429475864465,1 45388U 20019AE  26147.86618545  .00096183  00000+0  60386-3 0  9995,2 45388  53.0374  90.5044 0005442  70.1988 289.9617 15.75989367342788
STARLINK-1283,45389,53.0398,0.0004246,15.69405984,357.7356018761948,363.4581346771365,1 45389U 20019AF  26147.20999013  .00072349  00000+0  60409-3 0  9990,2 45389  53.0398  84.6387 0004246  81.7626 278.3871 15.69405984342827
STARLINK-1284,45390,53.0403,0.0005022,15.68437184,359.9859399703082,366.75711113337184,1 45390U 20019AG  26147.85595718  .00065798  00000+0  57250-3 0  9997,2 45390  53.0403 105.2341 0005022  15.5916 344.5253 15.68437184342585
STARLINK-1297,45395,53.0408,0.0006832,15.66839119,363.3457245629488,372.5635841994963,1 45395U 20019AM  26147.92297084  .00060351  00000+0  56083-3 0  9998,2 45395  53.0408 103.8047 0006832  24.0723 336.0610 15.66839119341790
STARLINK-1307,45397,53.0521,0.0002743,15.55632006,398.4567582609261,402.1754176249724,1 45397U 20019AP  26147.31850364  .00036227  00000+0  52309-3 0  9991,2 45397  53.0521 111.7106 0002743  60.4436 299.6848 15.55632006342279
STARLINK-1255,45399,53.0347,0.0005815,15.64462768,370.85744923452876,378.7110966749751,1 45399U 20019AR  26147.23280419  .00104184  00000+0  10551-2 0  9992,2 45399  53.0347  80.7751 0005815  78.6243 281.5424 15.64462768342689
STARLINK-1260,45404,53.1563,0.0006038,15.36461594,452.45579716164775,460.70940455164236,1 45404U 20019AW  26147.63969490  .00050769  00000+0  14072-2 0  9997,2 45404  53.1563 120.8449 0006038  45.9356 314.2144 15.36461594342089
STARLINK-1263,45405,53.1576,0.0004625,15.33852174,461.16733722477875,467.49662103047194,1 45405U 20019AX  26147.91580764  .00050805  00000+0  15306-2 0  9994,2 45405  53.1576 120.5929 0004625  62.6011 297.5462 15.33852174342113
STARLINK-1265,45406,53.1559,0.0005845,15.36852993,451.42791195155223,459.41634257132137,1 45406U 20019AY  26147.30977142  .00091263  00000+0  24765-2 0  9990,2 45406  53.1559 122.4113 0005845  38.6555 321.4866 15.36852993342030
STARLINK-1278,45408,53.0394,0.000718,15.67758352,360.4756125505037,370.1592130873114,1 45408U 20019BA  26147.89208005  .00063467  00000+0  56769-3 0  9996,2 45408  53.0394 102.9658 0007180  47.0458 313.1159 15.67758352342340
STARLINK-1296,45412,53.1543,0.0006173,15.37033065,450.67036387780536,459.10641702485736,1 45412U 20019BE  26147.35101577  .00076612  00000+0  20724-2 0  9995,2 45412  53.1543 121.9278 0006173  36.4717 323.6706 15.37033065342047
STARLINK-1309,45414,53.0605,0.0006779,15.6680929,363.4670421728233,372.6135093232824,1 45414U 20019BG  26147.07671727  .00053766  00000+0  50123-3 0  9997,2 45414  53.0605 100.8184 0006779  20.1728 339.9554 15.66809290342283
